1 42890U 17042BT  20107.37338654  .00003516  00000-0  87137-4 0  9991
2 42890  96.9032 338.9379 0010738 176.7202 183.4118 15.40953086154557
1 42890U 17042BT  20107.69807495  .00003532  00000-0  87538-4 0  9993
2 42890  96.9032 339.2447 0010775 175.5299 184.6047 15.40955600154605
1 42890U 17042BT  20108.60720004  .00003126  00000-0  77653-4 0  9991
2 42890  96.9032 340.1037 0010889 172.2680 187.8738 15.40961178154749
1 42890U 17042BT  20108.86694922  .00003388  00000-0  83997-4 0  9996
2 42890  96.9032 340.3492 0010933 171.2930 188.8510 15.40963674154789
1 42890U 17042BT  20109.19163577  .00003212  00000-0  79745-4 0  9992
2 42890  96.9031 340.6560 0010961 170.1099 190.0367 15.40965241154835
1 42890U 17042BT  20109.58125868  .00002881  00000-0  71694-4 0  9992
2 42890  96.9030 341.0241 0011002 168.7172 191.4325 15.40966909154894
1 42890U 17042BT  20109.71113291  .00002813  00000-0  70048-4 0  9991
2 42890  96.9030 341.1468 0011018 168.2644 191.8863 15.40967606154911
1 42890U 17042BT  20110.10075494  .00003299  00000-0  81814-4 0  9990
2 42890  96.9029 341.5150 0011061 166.8736 193.2802 15.40971770154977
1 42890U 17042BT  20110.62025062  .00003165  00000-0  78555-4 0  9993
2 42890  96.9028 342.0058 0011121 165.0104 195.1475 15.40974507155054
1 42890U 17042BT  20111.20468158  .00003274  00000-0  81197-4 0  9992
2 42890  96.9027 342.5581 0011197 162.9184 197.2442 15.40978510155141
1 42890U 17042BT  20111.65923725  .00003865  00000-0  95492-4 0  9996
2 42890  96.9025 342.9876 0011243 161.3335 198.8327 15.40983633155212
1 42890U 17042BT  20112.89302558  .00004279  00000-0  10547-3 0  9995
2 42890  96.9023 344.1534 0011409 156.9576 203.2186 15.40994273155403
1 42890U 17042BT  20113.54238415  .00004526  00000-0  11143-3 0  9996
2 42890  96.9020 344.7670 0011487 154.7515 205.4297 15.41000913155500
1 42890U 17042BT  20113.86706245  .00004253  00000-0  10481-3 0  9993
2 42890  96.9019 345.0737 0011547 153.6255 206.5583 15.41003397155556
1 42890U 17042BT  20114.19174006  .00003623  00000-0  89558-4 0  9996
2 42890  96.9017 345.3805 0011580 152.5190 207.6673 15.41005218155608
1 42890U 17042BT  20114.45148203  .00003381  00000-0  83698-4 0  9995
2 42890  96.9016 345.6258 0011609 151.5629 208.6254 15.41006826155646
1 42890U 17042BT  20114.90602977  .00003491  00000-0  86343-4 0  9990
2 42890  96.9015 346.0552 0011654 150.0141 210.1777 15.41010654155710
1 42890U 17042BT  20115.36057637  .00003486  00000-0  86203-4 0  9997
2 42890  96.9013 346.4846 0011712 148.4874 211.7078 15.41014039155786
1 42890U 17042BT  20115.81512273  .00003162  00000-0  78359-4 0  9993
2 42890  96.9012 346.9139 0011736 146.9498 213.2485 15.41015915155857
1 42890U 17042BT  20116.39953734  .00002792  00000-0  69405-4 0  9998
2 42890  96.9010 347.4660 0011822 144.9853 215.2175 15.41019034155943
1 42890U 17042BT  20116.59434210  .00003094  00000-0  76707-4 0  9992
2 42890  96.9009 347.6500 0011838 144.3434 215.8607 15.41021263155978
1 42890U 17042BT  20116.91901634  .00002972  00000-0  73760-4 0  9997
2 42890  96.9009 347.9567 0011875 143.2347 216.9718 15.41022938156028
1 42890U 17042BT  20117.56836308  .00003462  00000-0  85587-4 0  9999
2 42890  96.9008 348.5701 0011930 141.0909 219.1200 15.41028560156125
1 42890U 17042BT  20117.76316681  .00003466  00000-0  85669-4 0  9993
2 42890  96.9008 348.7541 0011951 140.4442 219.7680 15.41029798156152
1 42890U 17042BT  20118.28264197  .00003990  00000-0  98333-4 0  9999
2 42890  96.9006 349.2448 0012017 138.7462 221.4696 15.41034583156232
1 42890U 17042BT  20118.73718223  .00002978  00000-0  73854-4 0  9999
2 42890  96.9006 349.6741 0012062 137.2723 222.9465 15.41035387156307
1 42890U 17042BT  20118.86705057  .00003627  00000-0  89541-4 0  9996
2 42890  96.9006 349.7968 0012074 136.8383 223.3813 15.41037765156325
1 42890U 17042BT  20119.06185287  .00003792  00000-0  93522-4 0  9993
2 42890  96.9006 349.9807 0012104 136.1346 224.0866 15.41039745156354
1 42890U 17042BT  20119.77612655  .00003633  00000-0  89662-4 0  9999
2 42890  96.9006 350.6553 0012174 133.8010 226.4247 15.41044818156468
1 42890U 17042BT  20120.16572919  .00003640  00000-0  89831-4 0  9998
2 42890  96.9006 351.0233 0012216 132.5477 227.6804 15.41047919156522
1 42890U 17042BT  20120.68519861  .00003591  00000-0  88612-4 0  9993
2 42890  96.9006 351.5141 0012261 130.8558 229.3754 15.41051507156606
1 42890U 17042BT  20121.13973285  .00003781  00000-0  93202-4 0  9990
2 42890  96.9007 351.9434 0012307 129.4072 230.8268 15.41055630156677
1 42890U 17042BT  20121.72413311  .00003470  00000-0  85684-4 0  9994
2 42890  96.9008 352.4954 0012354 127.5245 232.7128 15.41059036156764
1 42890U 17042BT  20122.17866545  .00003126  00000-0  77350-4 0  9994
2 42890  96.9008 352.9248 0012400 126.0620 234.1778 15.41061450156836
1 42890U 17042BT  20122.76306269  .00003484  00000-0  85978-4 0  9993
2 42890  96.9007 353.4769 0012424 124.1671 236.0757 15.41066451156924
1 42890U 17042BT  20123.54225687  .00003573  00000-0  88116-4 0  9990
2 42890  96.9009 354.2130 0012491 121.7222 238.5245 15.41071905157049
1 42890U 17042BT  20123.60718969  .00003469  00000-0  85609-4 0  9995
2 42890  96.9008 354.2743 0012494 121.5029 238.7441 15.41072078157057
1 42890U 17042BT  20123.80198786  .00003418  00000-0  84367-4 0  9990
2 42890  96.9007 354.4583 0012506 120.8347 239.4133 15.41073246157086
1 42890U 17042BT  20124.19158326  .00003353  00000-0  82785-4 0  9999
2 42890  96.9008 354.8264 0012539 119.6473 240.6026 15.41075924157146
1 42890U 17042BT  20124.77597554  .00003519  00000-0  86797-4 0  9994
2 42890  96.9006 355.3784 0012582 117.7915 242.4610 15.41080320157230
1 42890U 17042BT  20124.84090806  .00003446  00000-0  85016-4 0  9992
2 42890  96.9006 355.4398 0012588 117.5811 242.6717 15.41080372157249
1 42890U 17042BT  20125.55516296  .00003252  00000-0  80335-4 0  9991
2 42890  96.9007 356.1146 0012650 115.3137 244.9423 15.41084522157358
1 42890U 17042BT  20125.81489132  .00002827  00000-0  70064-4 0  9993
2 42890  96.9005 356.3600 0012651 114.4847 245.7722 15.41085197157396
1 42890U 17042BT  20126.13955168  .00002878  00000-0  71290-4 0  9994
2 42890  96.9004 356.6666 0012681 113.4628 246.7955 15.41087326157440
1 42890U 17042BT  20126.85380248  .00003295  00000-0  81352-4 0  9998
2 42890  96.9002 357.3413 0012718 111.2106 249.0501 15.41093333157554
1 42890U 17042BT  20127.11352922  .00003658  00000-0  90096-4 0  9994
2 42890  96.9001 357.5867 0012727 110.4014 249.8602 15.41096317157596
1 42890U 17042BT  20127.30832432  .00003576  00000-0  88100-4 0  9996
2 42890  96.9000 357.7707 0012734 109.7758 250.4865 15.41097332157625
1 42890U 17042BT  20127.89270860  .00003532  00000-0  87028-4 0  9991
2 42890  96.8999 358.3228 0012779 107.9067 252.3576 15.41100914157719
1 42890U 17042BT  20128.28229695  .00003473  00000-0  85609-4 0  9992
2 42890  96.8997 358.6908 0012790 106.7246 253.5406 15.41103634157777
1 42890U 17042BT  20128.67188466  .00003448  00000-0  85002-4 0  9994
2 42890  96.8995 359.0588 0012800 105.5342 254.7320 15.41106445157838
1 42890U 17042BT  20128.80174703  .00003403  00000-0  83913-4 0  9998
2 42890  96.8994 359.1815 0012806 105.1304 255.1361 15.41107280157851
1 42890U 17042BT  20129.12640281  .00003069  00000-0  75848-4 0  9999
2 42890  96.8993 359.4881 0012823 104.1240 256.1433 15.41108885157902
1 42890U 17042BT  20129.77571297  .00003074  00000-0  75957-4 0  9997
2 42890  96.8991   0.1013 0012846 102.0877 258.1811 15.41113290158005
1 42890U 17042BT  20130.42502167  .00003059  00000-0  75591-4 0  9998
2 42890  96.8989   0.7145 0012860 100.0583 260.2116 15.41117050158103
1 42890U 17042BT  20130.81460601  .00003068  00000-0  75802-4 0  9992
2 42890  96.8989   1.0824 0012874  98.8089 261.4617 15.41119596158163
1 42890U 17042BT  20131.59377341  .00002736  00000-0  67793-4 0  9997
2 42890  96.8986   1.8183 0012897  96.4192 263.8525 15.41123087158287
1 42890U 17042BT  20131.85349517  .00002805  00000-0  69439-4 0  9996
2 42890  96.8986   2.0636 0012906  95.6661 264.6059 15.41124841158321
1 42890U 17042BT  20132.11321664  .00003015  00000-0  74503-4 0  9991
2 42890  96.8986   2.3088 0012908  94.8527 265.4195 15.41127100158364
1 42890U 17042BT  20132.56772919  .00002759  00000-0  68323-4 0  9990
2 42890  96.8985   2.7381 0012906  93.4291 266.8434 15.41128727158439
1 42890U 17042BT  20132.82745006  .00002819  00000-0  69773-4 0  9993
2 42890  96.8985   2.9833 0012917  92.6584 267.6143 15.41130398158478
1 42890U 17042BT  20133.28196146  .00002663  00000-0  66002-4 0  9998
2 42890  96.8985   3.4126 0012924  91.2296 269.0432 15.41132231158545
1 42890U 17042BT  20133.86633173  .00002797  00000-0  69218-4 0  9998
2 42890  96.8985   3.9645 0012943  89.3963 270.8768 15.41135951158630
1 42890U 17042BT  20134.45069937  .00003616  00000-0  88940-4 0  9999
2 42890  96.8985   4.5164 0012942  87.5373 272.7357 15.41142512158723
1 42890U 17042BT  20134.58055922  .00003355  00000-0  82653-4 0  9997
2 42890  96.8985   4.6391 0012944  87.1469 273.1261 15.41142338158747
1 42890U 17042BT  20134.84027730  .00003651  00000-0  89770-4 0  9998
2 42890  96.8985   4.8843 0012940  86.3257 273.9470 15.41145212158781
1 42890U 17042BT  20135.09999553  .00003626  00000-0  89158-4 0  9999
2 42890  96.8985   5.1296 0012936  85.5217 274.7508 15.41146944158828
1 42890U 17042BT  20135.94407809  .00003595  00000-0  88391-4 0  9994
2 42890  96.8987   5.9268 0012956  82.9985 277.2736 15.41152298158956
1 42890U 17042BT  20136.26872453  .00003180  00000-0  78407-4 0  9998
2 42890  96.8987   6.2334 0012950  81.9768 278.2949 15.41153471159004
1 42890U 17042BT  20136.59337041  .00003160  00000-0  77927-4 0  9997
2 42890  96.8988   6.5400 0012935  80.9457 279.3254 15.41155552159057
1 42890U 17042BT  20136.85308684  .00003348  00000-0  82450-4 0  9992
2 42890  96.8987   6.7854 0012934  80.1466 280.1242 15.41157593159090
1 42890U 17042BT  20137.43744700  .00003414  00000-0  84025-4 0  9994
2 42890  96.8987   7.3373 0012920  78.3735 281.8962 15.41162028159182
